GORIZONT 1 [-]          
1 11158U 78118A   22004.04563738  .00000003  00000+0  00000+0 0  9996
2 11158  11.1954 212.2477 3521845 271.8814  48.8231  1.00260438106640
GORIZONT 2 [-]          
1 11440U 79062A   22004.83025881 -.00000104  00000+0  00000+0 0  9991
2 11440   9.6639 303.7821 0003312 317.4711 219.7180  1.00237092121738
GORIZONT 3 [-]          
1 11648U 79105A   22004.96745321  .00000132  00000+0  00000+0 0  9991
2 11648   9.8165 305.1685 0011945 208.9333 344.8872  1.00230052106171
GORIZONT 4 [-]          
1 11841U 80049A   22004.57649839 -.00000014  00000+0  00000+0 0  9999
2 11841  10.9533 310.7233 0001970 359.7827 217.5884  0.98629117217496
GORIZONT 5 [-]          
1 13092U 82020A   22005.09985997 -.00000209  00000+0  00000+0 0  9992
2 13092  11.9164 315.9110 0032692 206.8553 328.0505  0.98533875105579
GORIZONT 6 [-]          
1 13624U 82103A   22005.48327708  .00000102  00000+0  00000+0 0  9999
2 13624  10.8251 315.9009 0000476 154.7892  28.9289  1.00184226104653
GORIZONT 7 [-]          
1 14160U 83066A   22004.33349539 -.00000083  00000+0  00000+0 0  9992
2 14160  12.4372 325.0015 0010378 319.5040  45.4531  0.98347250138776
GORIZONT 8 [-]          
1 14532U 83118A   22004.46676251 -.00000017  00000+0  00000+0 0  9998
2 14532  12.5966 326.8079 0028942 141.9266 218.2182  0.98268575104576
GORIZONT 9 [-]          
1 14940U 84041A   22004.40196178 -.00000245  00000+0  00000+0 0  9999
2 14940  11.7956 324.9263 0003293 211.8709 161.5398  1.00309278105653
GORIZONT 10 [-]         
1 15144U 84078A   22005.03345520 -.00000262  00000+0  00000+0 0  9992
2 15144  11.8797 325.9247 0001359  36.0198  41.4107  1.00181919138321
GORIZONT 11 [-]         
1 15484U 85007A   22004.60125316  .00000049  00000+0  00000+0 0  9995
2 15484  12.0447 327.8790 0002485 113.1143 248.7576  1.00316179136345
GORIZONT 12 [-]         
1 16769U 86044A   22005.33901259 -.00000363  00000+0  00000+0 0  9993
2 16769  12.6197 333.1629 0001127 316.8739  46.5568  1.00273151130998
GORIZONT 13 [-]         
1 17083U 86090A   22004.47025124 -.00000066  00000+0  00000+0 0  9996
2 17083  14.4414 340.1852 0015263 337.5445  28.1094  0.96725225102937
GORIZONT 14 [-]         
1 17969U 87040A   22004.40239787 -.00000059  00000+0  00000+0 0  9992
2 17969  13.4656 331.7298 0029639 167.4062 201.9544  0.97657732103990
GORIZONT 15 [-]         
1 19017U 88028A   22004.47190839 -.00000043  00000+0  00000+0 0  9999
2 19017  14.6959 343.0873 0035812 149.3780 222.7672  0.97826281103615
GORIZONT 16 [-]         
1 19397U 88071A   22004.70521738 -.00000101  00000+0  00000+0 0  9995
2 19397  13.5537 341.7854 0015102  49.4627 137.4337  0.99989762121997
GORIZONT 17 [-]         
1 19765U 89004A   22004.90413272 -.00000031  00000+0  00000+0 0  9998
2 19765  14.0679 345.0736 0021827 122.7835  49.9018  0.99063400119488
GORIZONT 18 [-]         
1 20107U 89052A   22005.13945708 -.00000076  00000+0  00000+0 0  9992
2 20107  14.0966 346.3432 0034873 314.5748  42.4365  0.99403934118263
GORIZONT 19 [-]         
1 20263U 89081A   22004.53610108  .00000116  00000+0  00000+0 0  9997
2 20263  13.8307 345.5738 0001532 241.0651 112.4971  1.00228815118206
GORIZONT 20 [-]         
1 20659U 90054A   22004.46946627 -.00000057  00000+0  00000+0 0  9993
2 20659  14.2405 348.4202 0005312 155.0640 197.4970  1.00319584115392
GORIZONT 21 [-]         
1 20923U 90094A   22005.13998038  .00000081  00000+0  00000+0 0  9995
2 20923  14.2419 349.1906 0002775 206.0352 151.1289  1.00322975114158
GORIZONT 22 [-]         
1 20953U 90102A   22004.94215671 -.00000293  00000+0  00000+0 0  9997
2 20953  14.2008 349.5501 0004180  11.2128 175.7033  1.00384316114111
GORIZONT 23 [-]         
1 21533U 91046A   22004.60805618  .00000005  00000+0  00000+0 0  9999
2 21533  14.9160 353.6386 0005098 323.3462  49.8247  0.98907531 30623
GORIZONT 24 [-]         
1 21759U 91074A   22004.77400300 -.00000250  00000+0  00000+0 0  9990
2 21759  15.0494 355.5033 0016414 222.5579 320.8568  0.98445495108965
GORIZONT 25 [-]         
1 21922U 92017A   22004.67320826 -.00000032  00000+0  00000+0 0  9991
2 21922  14.5969 354.8886 0029089  72.4688 289.7525  0.99856306108729
GORIZONT 26 [-]         
1 22041U 92043A   22004.64671233 -.00000054  00000+0  00000+0 0  9995
2 22041  14.7454 356.8449 0029721 231.9065 130.3637  0.99244425107350
GORIZONT 27 [-]         
1 22245U 92082A   22004.77356691 -.00000206  00000+0  00000+0 0  9995
2 22245  14.6669 356.5127 0013730   1.8067 178.0282  1.00224471110847
GORIZONT 28 [-]         
1 22880U 93069A   22004.65327376  .00000037  00000+0  00000+0 0  9992
2 22880  14.7615   0.3151 0032950 124.1056 242.1938  0.99653617102945
GORIZONT 29 [-]         
1 22907U 93072A   22004.83906786 -.00000380  00000+0  00000+0 0  9996
2 22907  14.6784 359.8015 0011702 341.0405 187.4725  1.00140560102904
GORIZONT 30 [-]         
1 23108U 94030A   22004.97748332 -.00000321  00000+0  00000+0 0  9996
2 23108  14.6832   0.7316 0000285 328.1113 224.1487  1.00384033101205
GORIZONT 31 [-]         
1 23775U 96005A   22004.66949242  .00000082  00000+0  00000+0 0  9992
2 23775  14.5188   6.8598 0017095 196.3621 348.5695  0.99892387 94827
GORIZONT 32 [-]         
1 23880U 96034A   22005.07427650 -.00000306  00000+0  00000+0 0  9991
2 23880  14.4615   7.3833 0009843 349.8091  87.9321  1.00182644 93778
GORIZONT 33 [-]         
1 26372U 00029A   22004.61046288 -.00000145  00000+0  00000+0 0  9993
2 26372  13.0461  18.3889 0003509  51.9438 150.2112  1.00388177 79138
